[{"OBJECT_NAME":"ONEWEB-0525","OBJECT_ID":"2022-138AG","EPOCH":"2026-03-09T18:22:28.913088","MEAN_MOTION":13.19725056,"ECCENTRICITY":0.00017127,"INCLINATION":87.9231,"RA_OF_ASC_NODE":324.7724,"ARG_OF_PERICENTER":90.0733,"MEAN_ANOMALY":270.0596,"EPHEMERIS_TYPE":0,"CLASSIFICATION_TYPE":"U","NORAD_CAT_ID":54143,"ELEMENT_SET_NO":999,"REV_AT_EPOCH":16371,"BSTAR":-0.00047346633,"MEAN_MOTION_DOT":-1.77e-6,"MEAN_MOTION_DDOT":0},{"OBJECT_NAME":"DELTA 1 DEB","OBJECT_ID":"1975-052CM","EPOCH":"2026-03-09T23:51:28.608768","MEAN_MOTION":13.31415563,"ECCENTRICITY":0.00738465,"INCLINATION":99.8139,"RA_OF_ASC_NODE":144.9341,"ARG_OF_PERICENTER":227.2579,"MEAN_ANOMALY":306.1508,"EPHEMERIS_TYPE":0,"CLASSIFICATION_TYPE":"U","NORAD_CAT_ID":21367,"ELEMENT_SET_NO":999,"REV_AT_EPOCH":68958,"BSTAR":0.00021272808,"MEAN_MOTION_DOT":6.1e-7,"MEAN_MOTION_DDOT":0}]
